#Pass ID: 20260109_111233_JILIN-1 GAOFEN 03D18
#Satellite: JILIN-1 GAOFEN 03D18
#Configuration: 03D_900M
#almurnet v.1.7.20251203
#Start time: 2026-01-09 11:22:11

#Version: 2.2.20231116
#Station: R4.6S_Anadyr
#Location: 177.4865 lon 64.73178 lat
#TLE: 1 51844U 22019W   26008.94646942  .00071153  00000+0  80959-3 0  9996
#TLE: 2 51844  97.3768  98.1789 0006212 335.8554  24.2411 15.62042813214980

#Time	Az	El	Level	Level2	SNR	BER	BlckErr	Temp	State	Recorded	gain1	gain2
2026-01-09 11:22:11.27	338.43	0.05	-47.9	-48.9	5.5	0.00e+00	0	28	0	0	60	34047
2026-01-09 11:22:12.28	338.48	-0.01	-48.1	-50.6	6.1	0.00e+00	0	28	104	0	60	41510

#Closed at: 2026-01-09 11:22:12
#Recorded file [0 MB]: D:/lorett/data/35029_260109_232211.dat